[{"OBJECT_NAME":"OBJECT C","OBJECT_ID":"2023-104C","EPOCH":"2026-03-09T22:39:44.230752","MEAN_MOTION":15.26846312,"ECCENTRICITY":0.00113074,"INCLINATION":97.273,"RA_OF_ASC_NODE":135.3333,"ARG_OF_PERICENTER":3.876,"MEAN_ANOMALY":356.2565,"EPHEMERIS_TYPE":0,"CLASSIFICATION_TYPE":"U","NORAD_CAT_ID":57426,"ELEMENT_SET_NO":999,"REV_AT_EPOCH":14663,"BSTAR":0.00062618506,"MEAN_MOTION_DOT":0.00016495,"MEAN_MOTION_DDOT":0},{"OBJECT_NAME":"STARLINK-31691","OBJECT_ID":"2024-097X","EPOCH":"2026-03-09T20:01:24.483360","MEAN_MOTION":15.27587247,"ECCENTRICITY":0.00019406,"INCLINATION":43.0044,"RA_OF_ASC_NODE":273.13,"ARG_OF_PERICENTER":276.3289,"MEAN_ANOMALY":83.7342,"EPHEMERIS_TYPE":0,"CLASSIFICATION_TYPE":"U","NORAD_CAT_ID":59856,"ELEMENT_SET_NO":999,"REV_AT_EPOCH":10194,"BSTAR":-6.2592988e-5,"MEAN_MOTION_DOT":-1.985e-5,"MEAN_MOTION_DDOT":0}]
